{"type": "FeatureCollection", "features": [ {"type": "Feature", "properties": {"norad_id": 34529, "name": "IRIDIUM 33 DEB", "group": "iridium-33-debris", "lat": -84.66049570737266, "lon": -5.711561521438117, "alt_km": 763.5669885743591, "timestamp": "2025-12-08T15:42:50.180536+00:00", "meta": {"OBJECT_NAME": "IRIDIUM 33 DEB", "OBJECT_ID": "1997-051HW", "EPOCH": "2025-12-08T04:26:38.874624", "MEAN_MOTION": 14.40610073, "ECCENTRICITY": 0.00042345, "INCLINATION": 86.3644, "RA_OF_ASC_NODE": 37.3532, "ARG_OF_PERICENTER": 192.5106, "MEAN_ANOMALY": 167.5989, "EPHEMERIS_TYPE": 0, "CLASSIFICATION_TYPE": "U", "NORAD_CAT_ID": 34529, "ELEMENT_SET_NO": 999, "REV_AT_EPOCH": 88076, "BSTAR": 0.00018799813, "MEAN_MOTION_DOT": 6.19e-06, "MEAN_MOTION_DDOT": 0}, "tle": {"line1": "1 34529U 97051HW  25342.18517216  .00000619  00000+0  18800-3 0  9997", "line2": "2 34529  86.3644  37.3532 0004234 192.5106 167.5989 14.40610073880766"}}, "geometry": {"type": "Point", "coordinates": [-5.711561521438117, -84.66049570737266]}}, {"type": "Feature", "properties": {"norad_id": 34538, "name": "IRIDIUM 33 DEB", "group": "iridium-33-debris", "lat": 80.9265861830595, "lon": 31.40664440916495, "alt_km": 746.5243568260375, "timestamp": "2025-12-08T15:42:50.180547+00:00", "meta": {"OBJECT_NAME": "IRIDIUM 33 DEB", "OBJECT_ID": "1997-051JF", "EPOCH": "2025-12-07T06:38:08.723904", "MEAN_MOTION": 14.42600183, "ECCENTRICITY": 0.00334838, "INCLINATION": 86.2771, "RA_OF_ASC_NODE": 7.9488, "ARG_OF_PERICENTER": 346.4929, "MEAN_ANOMALY": 141.5957, "EPHEMERIS_TYPE": 0, "CLASSIFICATION_TYPE": "U", "NORAD_CAT_ID": 34538, "ELEMENT_SET_NO": 999, "REV_AT_EPOCH": 87677, "BSTAR": 0.0014728578, "MEAN_MOTION_DOT": 4.942e-05, "MEAN_MOTION_DDOT": 0}, "tle": {"line1": "1 34538U 97051JF  25341.27648986  .00004942  00000+0  14729-2 0  9993", "line2": "2 34538  86.2771   7.9488 0033483 346.4929 141.5957 14.42600183876776"}}, "geometry": {"type": "Point", "coordinates": [31.40664440916495, 80.9265861830595]}}, {"type": "Feature", "properties": {"norad_id": 34540, "name": "IRIDIUM 33 DEB", "group": "iridium-33-debris", "lat": 20.218782376234138, "lon": -49.16436248375909, "alt_km": 654.5236803213265, "timestamp": "2025-12-08T15:42:50.180557+00:00", "meta": {"OBJECT_NAME": "IRIDIUM 33 DEB", "OBJECT_ID": "1997-051JH", "EPOCH": "2025-12-08T04:16:26.408352", "MEAN_MOTION": 14.75168935, "ECCENTRICITY": 0.00156096, "INCLINATION": 86.3105, "RA_OF_ASC_NODE": 309.6917, "ARG_OF_PERICENTER": 175.4701, "MEAN_ANOMALY": 195.2544, "EPHEMERIS_TYPE": 0, "CLASSIFICATION_TYPE": "U", "NORAD_CAT_ID": 34540, "ELEMENT_SET_NO": 999, "REV_AT_EPOCH": 88954, "BSTAR": 0.0021326634, "MEAN_MOTION_DOT": 0.00014466, "MEAN_MOTION_DDOT": 0}, "tle": {"line1": "1 34540U 97051JH  25342.17808343  .00014466  00000+0  21327-2 0  9995", "line2": "2 34540  86.3105 309.6917 0015609 175.4701 195.2544 14.75168935889545"}}, "geometry": {"type": "Point", "coordinates": [-49.16436248375909, 20.218782376234138]}}, {"type": "Feature", "properties": {"norad_id": 34648, "name": "IRIDIUM 33 DEB", "group": "iridium-33-debris", "lat": 26.816018561762927, "lon": -74.57569450740225, "alt_km": 818.1074054801547, "timestamp": "2025-12-08T15:42:50.180567+00:00", "meta": {"OBJECT_NAME": "IRIDIUM 33 DEB", "OBJECT_ID": "1997-051JZ", "EPOCH": "2025-12-06T19:20:47.044320", "MEAN_MOTION": 14.11197938, "ECCENTRICITY": 0.01849632, "INCLINATION": 86.3922, "RA_OF_ASC_NODE": 284.3423, "ARG_OF_PERICENTER": 317.3129, "MEAN_ANOMALY": 41.3805, "EPHEMERIS_TYPE": 0, "CLASSIFICATION_TYPE": "U", "NORAD_CAT_ID": 34648, "ELEMENT_SET_NO": 999, "REV_AT_EPOCH": 84877, "BSTAR": 0.013223828, "MEAN_MOTION_DOT": 0.00028092, "MEAN_MOTION_DDOT": 0}, "tle": {"line1": "1 34648U 97051JZ  25340.80610005  .00028092  00000+0  13224-1 0  9994", "line2": "2 34648  86.3922 284.3423 0184963 317.3129  41.3805 14.11197938848779"}}, "geometry": {"type": "Point", "coordinates": [-74.57569450740225, 26.816018561762927]}}, {"type": "Feature", "properties": {"norad_id": 34651, "name": "IRIDIUM 33 DEB", "group": "iridium-33-debris", "lat": -51.98877975585143, "lon": -32.915785251619, "alt_km": 714.6692847554614, "timestamp": "2025-12-08T15:42:50.180578+00:00", "meta": {"OBJECT_NAME": "IRIDIUM 33 DEB", "OBJECT_ID": "1997-051KC", "EPOCH": "2025-12-06T22:11:54.879936", "MEAN_MOTION": 14.25664536, "ECCENTRICITY": 0.01419317, "INCLINATION": 86.2838, "RA_OF_ASC_NODE": 143.05, "ARG_OF_PERICENTER": 222.4049, "MEAN_ANOMALY": 136.6106, "EPHEMERIS_TYPE": 0, "CLASSIFICATION_TYPE": "U", "NORAD_CAT_ID": 34651, "ELEMENT_SET_NO": 999, "REV_AT_EPOCH": 85813, "BSTAR": 0.004978077, "MEAN_MOTION_DOT": 0.00013145, "MEAN_MOTION_DDOT": 0}, "tle": {"line1": "1 34651U 97051KC  25340.92494074  .00013145  00000+0  49781-2 0  9998", "line2": "2 34651  86.2838 143.0500 0141931 222.4049 136.6106 14.25664536858131"}}, "geometry": {"type": "Point", "coordinates": [-32.915785251619, -51.98877975585143]}}, {"type": "Feature", "properties": {"norad_id": 34652, "name": "IRIDIUM 33 DEB", "group": "iridium-33-debris", "lat": 69.31174960210954, "lon": 152.03832598512034, "alt_km": 697.2648770733967, "timestamp": "2025-12-08T15:42:50.180589+00:00", "meta": {"OBJECT_NAME": "IRIDIUM 33 DEB", "OBJECT_ID": "1997-051KD", "EPOCH": "2025-12-08T07:03:48.948192", "MEAN_MOTION": 14.6199171, "ECCENTRICITY": 0.0026359, "INCLINATION": 86.3314, "RA_OF_ASC_NODE": 341.9806, "ARG_OF_PERICENTER": 314.3635, "MEAN_ANOMALY": 60.0719, "EPHEMERIS_TYPE": 0, "CLASSIFICATION_TYPE": "U", "NORAD_CAT_ID": 34652, "ELEMENT_SET_NO": 999, "REV_AT_EPOCH": 88419, "BSTAR": 0.0013387352, "MEAN_MOTION_DOT": 6.764e-05, "MEAN_MOTION_DDOT": 0}, "tle": {"line1": "1 34652U 97051KD  25342.29431653  .00006764  00000+0  13387-2 0  9997", "line2": "2 34652  86.3314 341.9806 0026359 314.3635  60.0719 14.61991710884190"}}, "geometry": {"type": "Point", "coordinates": [152.03832598512034, 69.31174960210954]}}, {"type": "Feature", "properties": {"norad_id": 34690, "name": "IRIDIUM 33 DEB", "group": "iridium-33-debris", "lat": 74.66298323645192, "lon": 52.11868759894172, "alt_km": 695.4042842271192, "timestamp": "2025-12-08T15:42:50.180599+00:00", "meta": {"OBJECT_NAME": "IRIDIUM 33 DEB", "OBJECT_ID": "1997-051KM", "EPOCH": "2025-12-08T03:56:46.392576", "MEAN_MOTION": 14.55069262, "ECCENTRICITY": 0.00113589, "INCLINATION": 86.3783, "RA_OF_ASC_NODE": 38.9797, "ARG_OF_PERICENTER": 43.1397, "MEAN_ANOMALY": 345.1287, "EPHEMERIS_TYPE": 0, "CLASSIFICATION_TYPE": "U", "NORAD_CAT_ID": 34690, "ELEMENT_SET_NO": 999, "REV_AT_EPOCH": 88028, "BSTAR": 0.00064037492, "MEAN_MOTION_DOT": 2.783e-05, "MEAN_MOTION_DDOT": 0}, "tle": {"line1": "1 34690U 97051KM  25342.16442584  .00002783  00000+0  64037-3 0  9996", "line2": "2 34690  86.3783  38.9797 0011358  43.1397 345.1287 14.55069262880283"}}, "geometry": {"type": "Point", "coordinates": [52.11868759894172, 74.66298323645192]}}, {"type": "Feature", "properties": {"norad_id": 34693, "name": "IRIDIUM 33 DEB", "group": "iridium-33-debris", "lat": 34.85345847798929, "lon": 123.27325759547568, "alt_km": 483.74574801247854, "timestamp": "2025-12-08T15:42:50.180610+00:00", "meta": {"OBJECT_NAME": "IRIDIUM 33 DEB", "OBJECT_ID": "1997-051KQ", "EPOCH": "2025-12-07T22:02:58.454304", "MEAN_MOTION": 15.26250885, "ECCENTRICITY": 0.00150657, "INCLINATION": 86.3063, "RA_OF_ASC_NODE": 306.2164, "ARG_OF_PERICENTER": 60.7141, "MEAN_ANOMALY": 2.5462, "EPHEMERIS_TYPE": 0, "CLASSIFICATION_TYPE": "U", "NORAD_CAT_ID": 34693, "ELEMENT_SET_NO": 999, "REV_AT_EPOCH": 88841, "BSTAR": 0.005329848, "MEAN_MOTION_DOT": 0.00140844, "MEAN_MOTION_DDOT": 0}, "tle": {"line1": "1 34693U 97051KQ  25341.91873211  .00140844  00000+0  53298-2 0  9993", "line2": "2 34693  86.3063 306.2164 0015065  60.7141   2.5462 15.26250885888411"}}, "geometry": {"type": "Point", "coordinates": [123.27325759547568, 34.85345847798929]}}, {"type": "Feature", "properties": {"norad_id": 34696, "name": "IRIDIUM 33 DEB", "group": "iridium-33-debris", "lat": 67.80254969403778, "lon": 38.83462156278508, "alt_km": 691.6210786169413, "timestamp": "2025-12-08T15:42:50.180620+00:00", "meta": {"OBJECT_NAME": "IRIDIUM 33 DEB", "OBJECT_ID": "1997-051KT", "EPOCH": "2025-12-08T04:13:33.659328", "MEAN_MOTION": 14.64721515, "ECCENTRICITY": 0.00743145, "INCLINATION": 86.1852, "RA_OF_ASC_NODE": 29.6457, "ARG_OF_PERICENTER": 182.9168, "MEAN_ANOMALY": 243.6432, "EPHEMERIS_TYPE": 0, "CLASSIFICATION_TYPE": "U", "NORAD_CAT_ID": 34696, "ELEMENT_SET_NO": 999, "REV_AT_EPOCH": 86606, "BSTAR": 0.0061120134, "MEAN_MOTION_DOT": 0.00034033, "MEAN_MOTION_DDOT": 0}, "tle": {"line1": "1 34696U 97051KT  25342.17608402  .00034033  00000+0  61120-2 0  9998", "line2": "2 34696  86.1852  29.6457 0074314 182.9168 243.6432 14.64721515866063"}}, "geometry": {"type": "Point", "coordinates": [38.83462156278508, 67.80254969403778]}}, {"type": "Feature", "properties": {"norad_id": 34765, "name": "IRIDIUM 33 DEB", "group": "iridium-33-debris", "lat": -41.292020663342214, "lon": 31.29154693155112, "alt_km": 764.1695583114315, "timestamp": "2025-12-08T15:42:50.180630+00:00", "meta": {"OBJECT_NAME": "IRIDIUM 33 DEB", "OBJECT_ID": "1997-051LJ", "EPOCH": "2025-12-08T02:42:04.212864", "MEAN_MOTION": 14.40446834, "ECCENTRICITY": 0.00149899, "INCLINATION": 86.3396, "RA_OF_ASC_NODE": 34.7471, "ARG_OF_PERICENTER": 227.7302, "MEAN_ANOMALY": 160.9531, "EPHEMERIS_TYPE": 0, "CLASSIFICATION_TYPE": "U", "NORAD_CAT_ID": 34765, "ELEMENT_SET_NO": 999, "REV_AT_EPOCH": 87547, "BSTAR": 0.00060973087, "MEAN_MOTION_DOT": 1.958e-05, "MEAN_MOTION_DDOT": 0}, "tle": {"line1": "1 34765U 97051LJ  25342.11254876  .00001958  00000+0  60973-3 0  9997", "line2": "2 34765  86.3396  34.7471 0014989 227.7302 160.9531 14.40446834875476"}}, "geometry": {"type": "Point", "coordinates": [31.29154693155112, -41.292020663342214]}}]}